[{"OBJECT_NAME":"STARLINK-30450","OBJECT_ID":"2023-147A","EPOCH":"2026-03-09T22:00:01.999584","MEAN_MOTION":15.26753138,"ECCENTRICITY":0.00016139,"INCLINATION":42.9999,"RA_OF_ASC_NODE":323.5204,"ARG_OF_PERICENTER":272.0502,"MEAN_ANOMALY":227.1858,"EPHEMERIS_TYPE":0,"CLASSIFICATION_TYPE":"U","NORAD_CAT_ID":57913,"ELEMENT_SET_NO":999,"REV_AT_EPOCH":567,"BSTAR":-0.00036162797,"MEAN_MOTION_DOT":-9.951e-5,"MEAN_MOTION_DDOT":0},{"OBJECT_NAME":"TIANMU-1 12","OBJECT_ID":"2023-205B","EPOCH":"2026-03-09T23:16:21.235872","MEAN_MOTION":15.25812065,"ECCENTRICITY":0.00067383,"INCLINATION":97.3538,"RA_OF_ASC_NODE":91.8946,"ARG_OF_PERICENTER":353.283,"MEAN_ANOMALY":6.8317,"EPHEMERIS_TYPE":0,"CLASSIFICATION_TYPE":"U","NORAD_CAT_ID":58646,"ELEMENT_SET_NO":999,"REV_AT_EPOCH":12237,"BSTAR":0.00029269543,"MEAN_MOTION_DOT":7.417e-5,"MEAN_MOTION_DDOT":0}]
